H1 CPF 01  gfz 2021 03 18 01  5771 tandemx   
H2 1003001  6202 36605    2021 03 18 00 59 42 2021 03 23 00 00 42   120 1 1  0 0 0
H9
10 0 59295  71982.000000  0    5533934.112  -2673443.085  -3121264.141
10 0 59295  72102.000000  0    5768333.989  -2996668.365  -2291169.543
10 0 59295  72222.000000  0    5896903.704  -3270805.377  -1420832.865
10 0 59295  72342.000000  0    5918228.955  -3489158.695   -525519.220
10 0 59295  72462.000000  0    5832889.916  -3646000.985    379038.810
10 0 59295  72582.000000  0    5643439.811  -3736713.423   1276924.004
10 0 59295  72702.000000  0    5354343.847  -3757905.329   2152324.273
10 0 59295  72822.000000  0    4971877.157  -3707507.064   2989820.588
10 0 59295  72942.000000  0    4503987.819  -3584836.413   3774665.606
10 0 59295  73062.000000  0    3960128.596  -3390635.843   4493048.585
10 0 59295  73182.000000  0    3351060.471  -3127081.572   5132342.309
10 0 59295  73302.000000  0    2688632.024  -2797761.778   5681324.837
10 0 59295  73422.000000  0    1985543.153  -2407626.083   6130373.486
10 0 59295  73542.000000  0    1255096.360  -1962908.464   6471628.383
10 0 59295  73662.000000  0     510941.781  -1471024.889   6699123.999
10 0 59295  73782.000000  0    -233179.389   -940447.170   6808887.467
10 0 59295  73902.000000  0    -963688.354   -380555.595   6799003.031
10 0 59295  74022.000000  0   -1667415.336    198526.845   6669643.014
10 0 59295  74142.000000  0   -2331836.085    786117.079   6423065.070
10 0 59295  74262.000000  0   -2945294.641   1371168.179   6063575.427
10 0 59295  74382.000000  0   -3497209.049   1942476.114   5597458.688
10 0 59295  74502.000000  0   -3978257.633   2488894.374   5032874.727
10 0 59295  74622.000000  0   -4380541.795   2999553.305   4379721.799
10 0 59295  74742.000000  0   -4697722.181   3464078.291   3649467.225
10 0 59295  74862.000000  0   -4925124.436   3872802.843   2854948.377
10 0 59295  74982.000000  0   -5059812.289   4216972.661   2010147.406
10 0 59295  75102.000000  0   -5100627.057   4488935.842   1129942.352
10 0 59295  75222.000000  0   -5048189.978   4682312.698    229838.292
10 0 59295  75342.000000  0   -4904868.807   4792140.221   -674313.205
10 0 59295  75462.000000  0   -4674709.622   4814990.233  -1566602.612
10 0 59295  75582.000000  0   -4363332.589   4749056.113  -2431352.209
10 0 59295  75702.000000  0   -3977797.597   4594204.869  -3253398.833
10 0 59295  75822.000000  0   -3526441.981   4351994.650  -4018363.928
10 0 59295  75942.000000  0   -3018695.955   4025658.463  -4712904.091
10 0 59295  76062.000000  0   -2464881.777   3620055.551  -5324938.283
10 0 59295  76182.000000  0   -1876002.093   3141593.479  -5843850.178
10 0 59295  76302.000000  0   -1263519.776   2598120.618  -6260663.448
10 0 59295  76422.000000  0    -639134.786   1998791.672  -6568185.630
10 0 59295  76542.000000  0     -14563.302   1353911.275  -6761120.392
10 0 59295  76662.000000  0     598677.105    674757.259  -6836149.109
10 0 59295  76782.000000  0    1189474.756    -26612.938  -6791982.940
10 0 59295  76902.000000  0    1747321.162   -737572.398  -6629381.981
10 0 59295  77022.000000  0    2262492.872  -1445146.163  -6351142.552
10 0 59295  77142.000000  0    2726218.085  -2136241.858  -5962054.644
10 0 59295  77262.000000  0    3130825.081  -2797886.310  -5468829.065
10 0 59295  77382.000000  0    3469871.910  -3417468.236  -4879993.972
10 0 59295  77502.000000  0    3738252.337  -3982979.642  -4205756.470
10 0 59295  77622.000000  0    3932275.743  -4483249.781  -3457835.959
10 0 59295  77742.000000  0    4049722.023  -4908170.264  -2649270.038
10 0 59295  77862.000000  0    4089868.997  -5248906.313  -1794192.760
10 0 59295  77982.000000  0    4053488.545  -5498087.243   -907588.016
10 0 59295  78102.000000  0    3942813.120  -5649970.577     -5024.151
10 0 59295  78222.000000  0    3761471.580  -5700575.801    897625.568
10 0 59295  78342.000000  0    3514396.798  -5647784.060   1784470.134
10 0 59295  78462.000000  0    3207706.256  -5491399.370   2639890.817
10 0 59295  78582.000000  0    2848557.906  -5233170.538   3448823.791
10 0 59295  78702.000000  0    2444987.331  -4876774.650   4197031.619
10 0 59295  78822.000000  0    2005729.981  -4427761.593   4871357.970
10 0 59295  78942.000000  0    1540032.137  -3893461.217   5459960.167
10 0 59295  79062.000000  0    1057455.920  -3282856.022   5952516.252
10 0 59295  79182.000000  0     567681.373  -2606421.758   6340401.478
10 0 59295  79302.000000  0      80312.006  -1875941.686   6616832.338
10 0 59295  79422.000000  0    -395312.540  -1104297.971   6776978.484
10 0 59295  79542.000000  0    -850294.203   -305242.833   6818043.286
10 0 59295  79662.000000  0   -1276341.981    506847.602   6739309.637
10 0 59295  79782.000000  0   -1665922.565   1317231.632   6542151.340
10 0 59295  79902.000000  0   -2012393.408   2111068.670   6230010.517
10 0 59295  80022.000000  0   -2310116.774   2873690.641   5808341.300
10 0 59295  80142.000000  0   -2554552.331   3590874.104   5284519.926
10 0 59295  80262.000000  0   -2742327.956   4249108.539   4667722.701
10 0 59295  80382.000000  0   -2871287.129   4835856.662   3968770.897
10 0 59295  80502.000000  0   -2940510.898   5339800.721   3199944.474
10 0 59295  80622.000000  0   -2950313.873   5751068.805   2374766.765
10 0 59295  80742.000000  0   -2902214.582   6061435.399   1507764.734
10 0 59295  80862.000000  0   -2798880.420   6264492.005    614208.944
10 0 59295  80982.000000  0   -2644048.211   6355783.605   -290162.056
10 0 59295  81102.000000  0   -2442423.030   6332906.855  -1189427.717
10 0 59295  81222.000000  0   -2199557.187   6195566.607  -2067777.075
10 0 59295  81342.000000  0   -1921710.565   5945585.635  -2909796.280
10 0 59295  81462.000000  0   -1615698.959   5586872.971  -3700741.885
10 0 59295  81582.000000  0   -1288735.121   5125353.131  -4426799.925
10 0 59295  81702.000000  0    -948265.433   4568856.189  -5075324.197
10 0 59295  81822.000000  0    -601806.394   3926974.660  -5635050.055
10 0 59295  81942.000000  0    -256783.742   3210888.936  -6096282.339
10 0 59295  82062.000000  0      79622.138   2433164.418  -6451052.927
10 0 59295  82182.000000  0     400620.431   1607527.150  -6693245.927
10 0 59295  82302.000000  0     699941.984    748622.357  -6818693.525
10 0 59295  82422.000000  0     971957.853   -128242.280  -6825239.968
10 0 59295  82542.000000  0    1211781.810  -1007364.459  -6712774.130
10 0 59295  82662.000000  0    1415355.459  -1872921.386  -6483229.551
10 0 59295  82782.000000  0    1579515.599  -2709246.379  -6140555.110
10 0 59295  82902.000000  0    1702043.548  -3501106.738  -5690656.078
10 0 59295  83022.000000  0    1781694.227  -4233980.813  -5141303.368
10 0 59295  83142.000000  0    1818205.160  -4894325.605  -4502008.801
10 0 59295  83262.000000  0    1812285.413  -5469830.445  -3783871.735
10 0 59295  83382.000000  0    1765583.732  -5949655.332  -2999396.548
10 0 59295  83502.000000  0    1680635.574  -6324646.115  -2162281.360
10 0 59295  83622.000000  0    1560791.384  -6587520.409  -1287181.118
10 0 59295  83742.000000  0    1410126.689  -6733020.263   -389450.606
10 0 59295  83862.000000  0    1233335.903  -6758027.302    515130.479
10 0 59295  83982.000000  0    1035613.018  -6661634.151   1410641.512
10 0 59295  84102.000000  0     822520.679  -6445173.642   2281310.501
10 0 59295  84222.000000  0     599853.145  -6112200.441   3111802.073
10 0 59295  84342.000000  0     373493.899  -5668427.236   3887495.100
10 0 59295  84462.000000  0     149273.359  -5121619.246   4594744.298
10 0 59295  84582.000000  0     -67169.475  -4481449.373   5221122.727
10 0 59295  84702.000000  0    -270518.525  -3759316.862   5755639.487
10 0 59295  84822.000000  0    -455901.734  -2968134.396   6188930.064
10 0 59295  84942.000000  0    -619000.052  -2122088.146   6513413.870
10 0 59295  85062.000000  0    -756141.908  -1236379.443   6723419.353
10 0 59295  85182.000000  0    -864381.424   -326949.946   6815278.544
10 0 59295  85302.000000  0    -941559.605    589806.547   6787387.980
10 0 59295  85422.000000  0    -986346.556   1497339.619   6640234.778
10 0 59295  85542.000000  0    -998263.961   2379240.463   6376388.425
10 0 59295  85662.000000  0    -977688.371   3219538.298   6000458.750
10 0 59295  85782.000000  0    -925835.380   4002991.126   5519020.279
10 0 59295  85902.000000  0    -844723.956   4715365.405   4940502.716
10 0 59295  86022.000000  0    -737122.722   5343701.035   4275049.908
10 0 59295  86142.000000  0    -606478.073   5876555.558   3534345.204
10 0 59295  86262.000000  0    -456826.334   6304220.607   2731410.749
10 0 59295  86382.000000  0    -292692.515   6618912.488   1880378.242
99
